[{"OBJECT_NAME":"STARLINK-30191","OBJECT_ID":"2023-102K","EPOCH":"2026-03-09T08:04:08.029056","MEAN_MOTION":15.27568618,"ECCENTRICITY":0.00013597,"INCLINATION":43.0051,"RA_OF_ASC_NODE":188.645,"ARG_OF_PERICENTER":246.2727,"MEAN_ANOMALY":113.7982,"EPHEMERIS_TYPE":0,"CLASSIFICATION_TYPE":"U","NORAD_CAT_ID":57413,"ELEMENT_SET_NO":999,"REV_AT_EPOCH":14691,"BSTAR":-6.7355929e-5,"MEAN_MOTION_DOT":-2.114e-5,"MEAN_MOTION_DDOT":0},{"OBJECT_NAME":"FLOCK 4G-12","OBJECT_ID":"2025-009S","EPOCH":"2026-03-09T17:16:21.445824","MEAN_MOTION":15.27059194,"ECCENTRICITY":0.00028933,"INCLINATION":97.4059,"RA_OF_ASC_NODE":151.1894,"ARG_OF_PERICENTER":310.1775,"MEAN_ANOMALY":49.9211,"EPHEMERIS_TYPE":0,"CLASSIFICATION_TYPE":"U","NORAD_CAT_ID":62625,"ELEMENT_SET_NO":999,"REV_AT_EPOCH":6371,"BSTAR":0.00043519262,"MEAN_MOTION_DOT":0.00011487,"MEAN_MOTION_DDOT":0}]
